NORAD_CAT_ID,OBJECT_NAME,OBJECT_TYPE,EPOCH,MEAN_MOTION,ECCENTRICITY,INCLINATION,RA_OF_ASC_NODE,ARG_OF_PERICENTER,MEAN_ANOMALY,BSTAR,MEAN_MOTION_DOT,MEAN_MOTION_DDOT,TLE_LINE0,TLE_LINE1,TLE_LINE2,SEMIMAJOR_AXIS,PERIOD,APOGEE,PERIGEE,DECAYED
52297.0,STARLINK-3758,PAYLOAD,2023-08-30 08:38:52,15.0883584,0.0001442,53.2169,279.6185,89.9967,270.1191,4.0923e-05,3.63e-06,0.0,0 STARLINK-3758,1 52297U 22041AN  23242.36033153  .00000363  00000-0  40923-4 0  9995,2 52297  53.2169 279.6185 0001442  89.9967 270.1191 15.08835840 76488,6917.893,95.438,540.756,538.761,0.0
52297.0,STARLINK-3758,PAYLOAD,2023-08-30 19:46:34,15.08838427,0.0001412,53.2165,277.5365,87.3612,272.7542,5.072e-05,5.19e-06,0.0,0 STARLINK-3758,1 52297U 22041AN  23242.82401033  .00000519  00000-0  50720-4 0  9991,2 52297  53.2165 277.5365 0001412  87.3612 272.7542 15.08838427 75332,6917.885,95.438,540.727,538.773,0.0
52297.0,STARLINK-3758,PAYLOAD,2023-08-31 02:08:07,15.08839263,0.000144,53.2165,276.3467,87.5834,272.5323,5.4209e-05,5.75e-06,0.0,0 STARLINK-3758,1 52297U 22041AN  23243.08896998  .00000575  00000-0  54209-4 0  9996,2 52297  53.2165 276.3467 0001440  87.5834 272.5323 15.08839263 75379,6917.883,95.438,540.744,538.751,0.0
52297.0,STARLINK-3758,PAYLOAD,2023-09-01 11:31:12,15.08842542,0.0001376,53.216,270.1015,89.1808,270.9341,7.7584e-05,9.47e-06,0.0,0 STARLINK-3758,1 52297U 22041AN  23244.48000653  .00000947  00000-0  77584-4 0  9990,2 52297  53.2160 270.1015 0001376  89.1808 270.9341 15.08842542 76807,6917.873,95.437,540.69,538.786,0.0
52297.0,STARLINK-3758,PAYLOAD,2023-09-01 13:06:35,15.08843395,0.0001414,53.2165,269.8049,87.059,273.0564,8.7912e-05,1.112e-05,0.0,0 STARLINK-3758,1 52297U 22041AN  23244.54624581  .00001112  00000-0  87912-4 0  9990,2 52297  53.2165 269.8049 0001414  87.0590 273.0564 15.08843395 75595,6917.87,95.437,540.713,538.757,0.0
52297.0,STARLINK-3758,PAYLOAD,2023-09-02 01:49:41,15.08825467,0.0001446,53.215,267.4279,87.2085,272.9072,0.00025501,3.771e-05,0.0,0 STARLINK-3758,1 52297U 22041AN  23245.07617135  .00003771  00000-0  25501-3 0  9994,2 52297  53.2150 267.4279 0001446  87.2085 272.9072 15.08825467 76890,6917.925,95.438,540.79,538.789,0.0
52297.0,STARLINK-3758,PAYLOAD,2023-09-03 08:02:00,15.08839105,0.0001682,53.2152,261.7756,94.1759,265.9425,2.6586e-05,1.35e-06,0.0,0 STARLINK-3758,1 52297U 22041AN  23246.33473010  .00000135  00000-0  26586-4 0  9992,2 52297  53.2152 261.7756 0001682  94.1759 265.9425 15.08839105 77086,6917.883,95.438,540.912,538.585,0.0
52297.0,STARLINK-3758,PAYLOAD,2023-09-03 12:48:09,15.08842429,0.0001365,53.2171,260.8834,89.4978,270.6171,1.6838e-05,-2e-07,0.0,0 STARLINK-3758,1 52297U 22041AN  23246.53344830 -.00000020  00000-0  16838-4 0  9994,2 52297  53.2171 260.8834 0001365  89.4978 270.6171 15.08842429 75893,6917.873,95.437,540.682,538.794,0.0
52297.0,STARLINK-3758,PAYLOAD,2023-09-03 17:34:20,15.0883284,0.0001345,53.2171,259.9916,88.4604,271.6543,-6.181e-05,-1.271e-05,0.0,0 STARLINK-3758,1 52297U 22041AN  23246.73217681 -.00001271  00000-0 -61810-4 0  9999,2 52297  53.2171 259.9916 0001345  88.4604 271.6543 15.08832840 77146,6917.902,95.438,540.698,538.837,0.0
52297.0,STARLINK-3758,PAYLOAD,2023-09-04 09:28:11,15.0883478,0.0001318,53.2164,257.0171,88.1584,271.9559,3.719e-05,3.04e-06,0.0,0 STARLINK-3758,1 52297U 22041AN  23247.39457573  .00000304  00000-0  37190-4 0  9996,2 52297  53.2164 257.0171 0001318  88.1584 271.9559 15.08834780 76025,6917.896,95.438,540.673,538.85,0.0
52297.0,STARLINK-3758,PAYLOAD,2023-09-05 01:22:02,15.08827704,0.0001313,53.2164,254.0443,97.3648,262.7494,0.00012397,1.685e-05,0.0,0 STARLINK-3758,1 52297U 22041AN  23248.05697812  .00001685  00000-0  12397-3 0  9996,2 52297  53.2164 254.0443 0001313  97.3648 262.7494 15.08827704 77342,6917.918,95.438,540.691,538.875,0.0
52297.0,STARLINK-3758,PAYLOAD,2023-09-05 10:54:21,15.08839298,0.0001268,53.2162,252.2602,91.7868,268.3269,6.0505e-05,6.75e-06,0.0,0 STARLINK-3758,1 52297U 22041AN  23248.45441530  .00000675  00000-0  60505-4 0  9997,2 52297  53.2162 252.2602 0001268  91.7868 268.3269 15.08839298 77408,6917.883,95.438,540.625,538.87,0.0
52297.0,STARLINK-3758,PAYLOAD,2023-09-06 12:20:30,15.08865862,0.000115,53.2158,247.502,87.3463,272.7661,-0.00019815,-3.442e-05,0.0,0 STARLINK-3758,1 52297U 22041AN  23249.51424399 -.00003442  00000-0 -19815-3 0  9993,2 52297  53.2158 247.5020 0001150  87.3463 272.7661 15.08865862 76349,6917.801,95.436,540.462,538.871,0.0
52297.0,STARLINK-3758,PAYLOAD,2023-09-06 23:28:13,15.08842567,0.0001867,53.2139,245.4224,74.2537,285.8661,4.8138e-05,4.78e-06,0.0,0 STARLINK-3758,1 52297U 22041AN  23249.97793834  .00000478  00000-0  48138-4 0  9991,2 52297  53.2139 245.4224 0001867  74.2537 285.8661 15.08842567 77638,6917.873,95.437,541.029,538.446,0.0
52297.0,STARLINK-3758,PAYLOAD,2023-09-07 12:11:18,15.08840988,0.000128,53.2159,243.0416,89.7404,270.3735,4.1491e-05,3.73e-06,0.0,0 STARLINK-3758,1 52297U 22041AN  23250.50785793  .00000373  00000-0  41491-4 0  9996,2 52297  53.2159 243.0416 0001280  89.7404 270.3735 15.08840988 76499,6917.877,95.437,540.628,538.857,0.0
52297.0,STARLINK-3758,PAYLOAD,2023-09-08 05:40:33,15.08851873,0.0001263,53.2161,239.77,91.7302,268.3835,-6.5078e-05,-1.324e-05,0.0,0 STARLINK-3758,1 52297U 22041AN  23251.23649500 -.00001324  00000-0 -65078-4 0  9998,2 52297  53.2161 239.7700 0001263  91.7302 268.3835 15.08851873 77822,6917.844,95.437,540.583,538.835,0.0
52297.0,STARLINK-3758,PAYLOAD,2023-09-08 10:26:42,15.08855944,0.0001293,53.2164,238.8778,92.1326,267.9815,-8.2191e-06,-4.19e-06,0.0,0 STARLINK-3758,1 52297U 22041AN  23251.43520935 -.00000419  00000-0 -82191-5 0  9990,2 52297  53.2164 238.8778 0001293  92.1326 267.9815 15.08855944 76638,6917.832,95.437,540.591,538.802,0.0
52297.0,STARLINK-3758,PAYLOAD,2023-09-08 16:48:15,15.08842765,0.0001532,53.2174,237.6866,94.9442,265.1725,1.4118e-05,-6.3e-07,0.0,0 STARLINK-3758,1 52297U 22041AN  23251.70017628 -.00000063  00000-0  14118-4 0  9997,2 52297  53.2174 237.6866 0001532  94.9442 265.1725 15.08842765 76670,6917.872,95.437,540.797,538.677,0.0
52297.0,STARLINK-3758,PAYLOAD,2023-09-09 02:20:34,15.08840841,0.0001369,53.2168,235.9045,89.4258,270.6891,6.0247e-05,6.71e-06,0.0,0 STARLINK-3758,1 52297U 22041AN  23252.09761733  .00000671  00000-0  60247-4 0  9991,2 52297  53.2168 235.9045 0001369  89.4258 270.6891 15.08840841 77955,6917.878,95.438,540.69,538.796,0.0
52297.0,STARLINK-3758,PAYLOAD,2023-09-09 08:42:06,15.08845473,0.0001358,53.2171,234.7143,94.5897,265.525,8.3056e-05,1.034e-05,0.0,0 STARLINK-3758,1 52297U 22041AN  23252.36257277  .00001034  00000-0  83056-4 0  9991,2 52297  53.2171 234.7143 0001358  94.5897 265.5250 15.08845473 76776,6917.864,95.437,540.668,538.789,0.0
52297.0,STARLINK-3758,PAYLOAD,2023-09-10 02:11:21,15.08837025,0.0001358,53.2167,231.4445,93.3284,266.7864,-4.9489e-05,-1.075e-05,0.0,0 STARLINK-3758,1 52297U 22041AN  23253.09122320 -.00001075  00000-0 -49489-4 0  9991,2 52297  53.2167 231.4445 0001358  93.3284 266.7864 15.08837025 78104,6917.889,95.438,540.694,538.815,0.0
52297.0,STARLINK-3758,PAYLOAD,2023-09-10 08:32:53,15.08840848,0.0001415,53.2169,230.2534,94.1214,265.994,6.0709e-08,-2.87e-06,0.0,0 STARLINK-3758,1 52297U 22041AN  23253.35617936 -.00000287  00000-0  60709-7 0  9996,2 52297  53.2169 230.2534 0001415  94.1214 265.9940 15.08840848 76929,6917.878,95.438,540.722,538.764,0.0
52297.0,STARLINK-3758,PAYLOAD,2023-09-11 06:48:17,15.08842386,0.0001355,53.2165,226.0916,93.7903,266.3244,5.9649e-05,6.62e-06,0.0,0 STARLINK-3758,1 52297U 22041AN  23254.28353883  .00000662  00000-0  59649-4 0  9991,2 52297  53.2165 226.0916 0001355  93.7903 266.3244 15.08842386 78287,6917.873,95.437,540.675,538.801,0.0
52297.0,STARLINK-3758,PAYLOAD,2023-09-12 01:52:55,15.08836108,0.0001317,53.2171,222.5247,94.4206,265.6937,4.461e-05,4.22e-06,0.0,0 STARLINK-3758,1 52297U 22041AN  23255.07842564  .00000422  00000-0  44610-4 0  9994,2 52297  53.2171 222.5247 0001317  94.4206 265.6937 15.08836108 78404,6917.892,95.438,540.668,538.846,0.0
52297.0,STARLINK-3758,PAYLOAD,2023-09-12 08:14:28,15.0884018,0.000128,53.2166,221.3347,93.0118,267.1021,7.3063e-05,8.75e-06,0.0,0 STARLINK-3758,1 52297U 22041AN  23255.34338310  .00000875  00000-0  73063-4 0  9999,2 52297  53.2166 221.3347 0001280  93.0118 267.1021 15.08840180 77227,6917.88,95.438,540.63,538.859,0.0
52297.0,STARLINK-3758,PAYLOAD,2023-09-13 06:29:51,15.08852711,0.0001264,53.2168,217.1718,98.0073,262.1063,0.00017233,2.457e-05,0.0,0 STARLINK-3758,1 52297U 22041AN  23256.27073449  .00002457  00000-0  17233-3 0  9995,2 52297  53.2168 217.1718 0001264  98.0073 262.1063 15.08852711 78585,6917.842,95.437,540.581,538.832,0.0
52297.0,STARLINK-3758,PAYLOAD,2023-09-14 03:09:53,15.0883545,0.0001527,53.2161,213.3049,128.2905,231.8225,-4.1824e-05,-9.53e-06,0.0,0 STARLINK-3758,1 52297U 22041AN  23257.13186515 -.00000953  00000-0 -41824-4 0  9995,2 52297  53.2161 213.3049 0001527 128.2905 231.8225 15.08835450 78714,6917.894,95.438,540.816,538.703,0.0
52297.0,STARLINK-3758,PAYLOAD,2023-09-14 06:20:39,15.08835386,0.0001199,53.2158,212.7106,83.6137,276.4991,9.5809e-06,-1.35e-06,0.0,0 STARLINK-3758,1 52297U 22041AN  23257.26434837 -.00000135  00000-0  95809-5 0  9996,2 52297  53.2158 212.7106 0001199  83.6137 276.4991 15.08835386 77513,6917.894,95.438,540.589,538.93,0.0
52297.0,STARLINK-3758,PAYLOAD,2023-09-14 20:39:08,15.08832945,0.0001429,53.217,210.034,71.0546,289.0601,7.6822e-06,-1.66e-06,0.0,0 STARLINK-3758,1 52297U 22041AN  23257.86051372 -.00000166  00000-0  76822-5 0  9999,2 52297  53.2170 210.0340 0001429  71.0546 289.0601 15.08832945 77605,6917.902,95.438,540.756,538.778,0.0
52297.0,STARLINK-3758,PAYLOAD,2023-09-15 06:11:26,15.08847747,0.0001278,53.2163,208.2501,82.8738,277.2399,0.00015862,2.238e-05,0.0,0 STARLINK-3758,1 52297U 22041AN  23258.25794684  .00002238  00000-0  15862-3 0  9999,2 52297  53.2163 208.2501 0001278  82.8738 277.2399 15.08847747 78880,6917.857,95.437,540.606,538.838,0.0
